{
  "type": "FeatureCollection",
  "features": [
    {
      "type": "Feature",
      "properties": {
        "norad_id": 35443,
        "name": "COSMOS 2251 DEB",
        "group": "cosmos-2251-debris",
        "lat": -72.26143128711199,
        "lon": -97.83544176172181,
        "alt_km": 633.2361648993674,
        "timestamp": "2025-12-15T11:38:37.548133+00:00",
        "meta_object_name": "COSMOS 2251 DEB",
        "meta_object_id": "1993-036AKM",
        "meta_epoch": "2025-12-14T08:44:51.126432",
        "meta_mean_motion": 14.96872959,
        "meta_eccentricity": 0.00730072,
        "meta_inclination": 73.9879,
        "meta_ra_of_asc_node": 328.2992,
        "meta_arg_of_pericenter": 109.5379,
        "meta_mean_anomaly": 251.371,
        "meta_ephemeris_type": 0,
        "meta_classification_type": "U",
        "meta_norad_cat_id": 35443,
        "meta_element_set_no": 999,
        "meta_rev_at_epoch": 86902,
        "meta_bstar": 0.0038186526,
        "meta_mean_motion_dot": 0.00046511,
        "meta_mean_motion_ddot": 0,
        "tle_line1": "1 35443U 93036AKM 25348.36448063  .00046511  00000+0  38187-2 0  9991",
        "tle_line2": "2 35443  73.9879 328.2992 0073007 109.5379 251.3710 14.96872959869024"
      },
      "geometry": {
        "type": "Point",
        "coordinates": [
          -97.83544176172181,
          -72.26143128711199
        ]
      }
    },
    {
      "type": "Feature",
      "properties": {
        "norad_id": 35445,
        "name": "COSMOS 2251 DEB",
        "group": "cosmos-2251-debris",
        "lat": -57.946053895069966,
        "lon": -92.42987423106074,
        "alt_km": 688.4068773668305,
        "timestamp": "2025-12-15T11:38:37.548143+00:00",
        "meta_object_name": "COSMOS 2251 DEB",
        "meta_object_id": "1993-036AKP",
        "meta_epoch": "2025-12-13T22:04:40.513440",
        "meta_mean_motion": 14.59186255,
        "meta_eccentricity": 0.01438132,
        "meta_inclination": 74.0364,
        "meta_ra_of_asc_node": 297.7552,
        "meta_arg_of_pericenter": 24.4999,
        "meta_mean_anomaly": 336.2909,
        "meta_ephemeris_type": 0,
        "meta_classification_type": "U",
        "meta_norad_cat_id": 35445,
        "meta_element_set_no": 999,
        "meta_rev_at_epoch": 87346,
        "meta_bstar": 0.0023329731,
        "meta_mean_motion_dot": 0.00012698,
        "meta_mean_motion_ddot": 0,
        "tle_line1": "1 35445U 93036AKP 25347.91991335  .00012698  00000+0  23330-2 0  9991",
        "tle_line2": "2 35445  74.0364 297.7552 0143813  24.4999 336.2909 14.59186255873467"
      },
      "geometry": {
        "type": "Point",
        "coordinates": [
          -92.42987423106074,
          -57.946053895069966
        ]
      }
    },
    {
      "type": "Feature",
      "properties": {
        "norad_id": 35446,
        "name": "COSMOS 2251 DEB",
        "group": "cosmos-2251-debris",
        "lat": -64.24857662934934,
        "lon": -83.37937297154889,
        "alt_km": 757.6231941047818,
        "timestamp": "2025-12-15T11:38:37.548153+00:00",
        "meta_object_name": "COSMOS 2251 DEB",
        "meta_object_id": "1993-036AKQ",
        "meta_epoch": "2025-12-14T04:36:11.087136",
        "meta_mean_motion": 14.54631027,
        "meta_eccentricity": 0.00744204,
        "meta_inclination": 74.0468,
        "meta_ra_of_asc_node": 315.4356,
        "meta_arg_of_pericenter": 73.2125,
        "meta_mean_anomaly": 287.7185,
        "meta_ephemeris_type": 0,
        "meta_classification_type": "U",
        "meta_norad_cat_id": 35446,
        "meta_element_set_no": 999,
        "meta_rev_at_epoch": 88029,
        "meta_bstar": 0.00015794342,
        "meta_mean_motion_dot": 6.7e-06,
        "meta_mean_motion_ddot": 0,
        "tle_line1": "1 35446U 93036AKQ 25348.19179499  .00000670  00000+0  15794-3 0  9995",
        "tle_line2": "2 35446  74.0468 315.4356 0074420  73.2125 287.7185 14.54631027880295"
      },
      "geometry": {
        "type": "Point",
        "coordinates": [
          -83.37937297154889,
          -64.24857662934934
        ]
      }
    },
    {
      "type": "Feature",
      "properties": {
        "norad_id": 35448,
        "name": "COSMOS 2251 DEB",
        "group": "cosmos-2251-debris",
        "lat": 32.06209543121628,
        "lon": -106.1409862375166,
        "alt_km": 713.7110374369913,
        "timestamp": "2025-12-15T11:38:37.548164+00:00",
        "meta_object_name": "COSMOS 2251 DEB",
        "meta_object_id": "1993-036AKS",
        "meta_epoch": "2025-12-14T16:48:40.813632",
        "meta_mean_motion": 14.54286955,
        "meta_eccentricity": 0.00119673,
        "meta_inclination": 73.9048,
        "meta_ra_of_asc_node": 85.7736,
        "meta_arg_of_pericenter": 268.2948,
        "meta_mean_anomaly": 91.6843,
        "meta_ephemeris_type": 0,
        "meta_classification_type": "U",
        "meta_norad_cat_id": 35448,
        "meta_element_set_no": 999,
        "meta_rev_at_epoch": 87363,
        "meta_bstar": 0.00094048305,
        "meta_mean_motion_dot": 3.966e-05,
        "meta_mean_motion_ddot": 0,
        "tle_line1": "1 35448U 93036AKS 25348.70047238  .00003966  00000+0  94048-3 0  9999",
        "tle_line2": "2 35448  73.9048  85.7736 0011967 268.2948  91.6843 14.54286955873633"
      },
      "geometry": {
        "type": "Point",
        "coordinates": [
          -106.1409862375166,
          32.06209543121628
        ]
      }
    },
    {
      "type": "Feature",
      "properties": {
        "norad_id": 35451,
        "name": "COSMOS 2251 DEB",
        "group": "cosmos-2251-debris",
        "lat": -66.23511430227487,
        "lon": -42.374888608798656,
        "alt_km": 464.9764467588302,
        "timestamp": "2025-12-15T11:38:37.548174+00:00",
        "meta_object_name": "COSMOS 2251 DEB",
        "meta_object_id": "1993-036AKV",
        "meta_epoch": "2025-12-14T17:21:00.017568",
        "meta_mean_motion": 15.35844177,
        "meta_eccentricity": 0.00411257,
        "meta_inclination": 73.9322,
        "meta_ra_of_asc_node": 98.383,
        "meta_arg_of_pericenter": 344.054,
        "meta_mean_anomaly": 15.9367,
        "meta_ephemeris_type": 0,
        "meta_classification_type": "U",
        "meta_norad_cat_id": 35451,
        "meta_element_set_no": 999,
        "meta_rev_at_epoch": 67436,
        "meta_bstar": 0.0011714729,
        "meta_mean_motion_dot": 0.00042215,
        "meta_mean_motion_ddot": 0,
        "tle_line1": "1 35451U 93036AKV 25348.72291687  .00042215  00000+0  11715-2 0  9993",
        "tle_line2": "2 35451  73.9322  98.3830 0041125 344.0540  15.9367 15.35844177674362"
      },
      "geometry": {
        "type": "Point",
        "coordinates": [
          -42.374888608798656,
          -66.23511430227487
        ]
      }
    },
    {
      "type": "Feature",
      "properties": {
        "norad_id": 35453,
        "name": "COSMOS 2251 DEB",
        "group": "cosmos-2251-debris",
        "lat": 36.349943008888154,
        "lon": 27.490748870996217,
        "alt_km": 778.7137926631594,
        "timestamp": "2025-12-15T11:38:37.548184+00:00",
        "meta_object_name": "COSMOS 2251 DEB",
        "meta_object_id": "1993-036AKX",
        "meta_epoch": "2025-12-12T10:00:01.192608",
        "meta_mean_motion": 14.37983532,
        "meta_eccentricity": 0.00672601,
        "meta_inclination": 74.0093,
        "meta_ra_of_asc_node": 20.9669,
        "meta_arg_of_pericenter": 155.0047,
        "meta_mean_anomaly": 205.439,
        "meta_ephemeris_type": 0,
        "meta_classification_type": "U",
        "meta_norad_cat_id": 35453,
        "meta_element_set_no": 999,
        "meta_rev_at_epoch": 86214,
        "meta_bstar": 0.0010887113,
        "meta_mean_motion_dot": 3.355e-05,
        "meta_mean_motion_ddot": 0,
        "tle_line1": "1 35453U 93036AKX 25346.41668047  .00003355  00000+0  10887-2 0  9998",
        "tle_line2": "2 35453  74.0093  20.9669 0067260 155.0047 205.4390 14.37983532862149"
      },
      "geometry": {
        "type": "Point",
        "coordinates": [
          27.490748870996217,
          36.349943008888154
        ]
      }
    },
    {
      "type": "Feature",
      "properties": {
        "norad_id": 35455,
        "name": "COSMOS 2251 DEB",
        "group": "cosmos-2251-debris",
        "lat": 3.776469128225791,
        "lon": -69.26639419075872,
        "alt_km": 667.4566348487269,
        "timestamp": "2025-12-15T11:38:37.548194+00:00",
        "meta_object_name": "COSMOS 2251 DEB",
        "meta_object_id": "1993-036AKZ",
        "meta_epoch": "2025-12-13T21:31:37.319808",
        "meta_mean_motion": 14.49426566,
        "meta_eccentricity": 0.00991812,
        "meta_inclination": 74.0281,
        "meta_ra_of_asc_node": 292.6308,
        "meta_arg_of_pericenter": 35.8809,
        "meta_mean_anomaly": 324.8957,
        "meta_ephemeris_type": 0,
        "meta_classification_type": "U",
        "meta_norad_cat_id": 35455,
        "meta_element_set_no": 999,
        "meta_rev_at_epoch": 86560,
        "meta_bstar": 0.0018405122,
        "meta_mean_motion_dot": 7.478e-05,
        "meta_mean_motion_ddot": 0,
        "tle_line1": "1 35455U 93036AKZ 25347.89695972  .00007478  00000+0  18405-2 0  9994",
        "tle_line2": "2 35455  74.0281 292.6308 0099181  35.8809 324.8957 14.49426566865607"
      },
      "geometry": {
        "type": "Point",
        "coordinates": [
          -69.26639419075872,
          3.776469128225791
        ]
      }
    }
  ]
}